{ "type": "FeatureCollection", "features": [
{"type":"Feature","geometry":{"type":"Polygon","coordinates":[[[-122.40705242177904,37.803214116644774],[-122.40702329329173,37.80272441129093],[-122.40633775691079,37.80280248366652],[-122.40605307812571,37.801384173291176],[-122.4051091742479,37.80148287678415],[-122.40484054060443,37.800540779676844],[-122.40422859828104,37.8005867939157],[-122.40407649553923,37.7998348964321],[-122.40341946444698,37.79982727087878],[-122.40265966076423,37.799980724819925],[-122.40240852170186,37.799935728159824],[-122.40246755933737,37.80023764624102],[-122.40250519764386,37.80041192871273],[-122.40265488835038,37.801169071306646],[-122.40147924011914,37.80130820423598],[-122.40159889121992,37.80190839277792],[-122.40027804766147,37.80213124285255],[-122.39953332781275,37.80121330377248],[-122.39767769993502,37.79915678185674],[-122.39716715422597,37.79858080583737],[-122.39761589075864,37.798502052218616],[-122.39746275366949,37.79780110185952],[-122.39713355998785,37.79785408764596],[-122.3971888228085,37.798371216302755],[-122.39631555097858,37.79759303307411],[-122.39327651507477,37.794133384135165],[-122.3926428035129,37.79349698040777],[-122.39318505923474,37.793067033244625],[-122.39264328589184,37.79263490396276],[-122.39198030668258,37.79296855398768],[-122.39112506206119,37.79224094087203],[-122.39151191932265,37.79186404053164],[-122.39137200066875,37.79162668139937],[-122.39311255108022,37.790226339746205],[-122.39007034964038,37.78781069754986],[-122.39095404417056,37.78710711023119],[-122.39059858760452,37.78682567512032],[-122.39083715935153,37.78660521749681],[-122.39083291121213,37.78643837435268],[-122.3909830752495,37.78643596608292],[-122.39136803801512,37.786215189806555],[-122.39029141239443,37.78523098436706],[-122.39105586484426,37.78457492190776],[-122.38971585979783,37.783345469766466],[-122.39127500492695,37.781972348364974],[-122.39096741344267,37.7816911478759],[-122.3913625107776,37.78127945190346],[-122.39027397394338,37.78041466063735],[-122.3923808241319,37.77872220744668],[-122.39620824179657,37.77574119662974],[-122.40085970319386,37.772029975167335],[-122.40208232004991,37.77109223360525],[-122.40281455733557,37.771533464818816],[-122.40300393009524,37.77130388392745],[-122.4024815728274,37.77084734371032],[-122.40296754319985,37.77046990685075],[-122.40339585156586,37.77077297266811],[-122.40416553871273,37.770331337475845],[-122.4067094119164,37.772305095143814],[-122.40715186076041,37.77198795667858],[-122.40658382205216,37.77150832890428],[-122.4071304411331,37.771153738076265],[-122.40772820083373,37.77162096009208],[-122.41008313922839,37.769746781199174],[-122.41167669142625,37.77097279688433],[-122.41216357064746,37.770533225439806],[-122.4123250133084,37.77035052989623],[-122.4127171572873,37.769966362167985],[-122.41304171528553,37.76933501096845],[-122.41328547275849,37.76858947566987],[-122.4145908257671,37.76851099486109],[-122.41460621925346,37.76808772599329],[-122.41504004910718,37.768021066687],[-122.41521466893737,37.767803627172604],[-122.41579954299027,37.76777027830628],[-122.41577346557618,37.76734149627579],[-122.4161935075017,37.767322745565586],[-122.41623505033296,37.76680226033685],[-122.417248699803,37.76674106242143],[-122.41690371405812,37.762072283703986],[-122.41688109891638,37.7618973752509],[-122.41749812462115,37.76186011828905],[-122.41746341195123,37.76124551810465],[-122.41782337390052,37.76122773929534],[-122.41772087325265,37.75958411596061],[-122.42013639161345,37.75949709837651],[-122.42004091766542,37.75866100497459],[-122.42008041427931,37.75791232905062],[-122.42050055835908,37.75791849988001],[-122.42058416983339,37.75862818569482],[-122.42113783948207,37.75859473537522],[-122.4214224002814,37.75857754172089],[-122.4233538900935,37.75846082343326],[-122.42363844873238,37.758443624447324],[-122.4254488103114,37.758334191992795],[-122.42555731784012,37.75913483227017],[-122.42604475672299,37.764776230744765],[-122.42618846727237,37.76637722056478],[-122.4262722077991,37.76780624040768],[-122.42631204720286,37.76895215802938],[-122.42417096290484,37.76912495580774],[-122.4243180819827,37.77077903360633],[-122.4240062406075,37.77098688368041],[-122.42345336008854,37.77143103101697],[-122.42321247114238,37.771662378472236],[-122.42247783846189,37.772215902003545],[-122.42206833372647,37.77267029864521],[-122.42212690776613,37.77326038047458],[-122.42223504448245,37.77379537640245],[-122.42247412398895,37.77378631641097],[-122.42289451634734,37.773806706344104],[-122.42302213636911,37.774674958857084],[-122.4232179338402,37.77469561004652],[-122.42340708540871,37.77482198850624],[-122.42360049088228,37.77554778031967],[-122.42415508566334,37.77550296193793],[-122.42459018134207,37.77753815391691],[-122.42470625763347,37.778224190931844],[-122.42481398223393,37.77822281607234],[-122.4253227840964,37.778249891346945],[-122.42563561927912,37.7781494023919],[-122.42589086839499,37.77814523286046],[-122.42589272259507,37.7782167376555],[-122.42581795847057,37.77822988120918],[-122.42583105596913,37.778336205645296],[-122.4258735085964,37.77863433441114],[-122.42484150938469,37.778806180034756],[-122.42491034123542,37.77940963899902],[-122.42395609109606,37.779531199852016],[-122.42398805622759,37.78007196109917],[-122.42338776443108,37.78009367832797],[-122.42342736192883,37.78046262600436],[-122.42116563271888,37.78071410711655],[-122.42017969717187,37.78081997289072],[-122.42020893364503,37.7809645943681],[-122.42024662155453,37.78115101989605],[-122.42031240466096,37.78147641859382],[-122.42033681362186,37.7815971544161],[-122.42039737628922,37.781896724509174],[-122.42043506627967,37.782083149927246],[-122.42058582477492,37.782828853273806],[-122.42062351459961,37.78301527951976],[-122.42067422534974,37.783266106326494],[-122.42070848974888,37.78343558509469],[-122.42077427801391,37.78376098248187],[-122.42081196876133,37.78394740773548],[-122.42086130974644,37.784191456179585],[-122.42089694604344,37.78436771310407],[-122.420962734848,37.78469311125078],[-122.42100042654147,37.784879536412824],[-122.42106621736454,37.78520493355245],[-122.42108540595652,37.78529984157496],[-122.42113577204044,37.78554894431329],[-122.42118685376184,37.785807216951035],[-122.42123827906373,37.7860614185769],[-122.42133547847146,37.78654188692334],[-122.4213731935822,37.786728310651675],[-122.4214582225095,37.787148610160585],[-122.42188550627708,37.78709512534483],[-122.42320035794786,37.78693052921587],[-122.42326725588352,37.78726087283565],[-122.42330500787448,37.7874472908992],[-122.42337090162103,37.787772675211286],[-122.42339012099414,37.78786757966771],[-122.42343867222966,37.788107321297076],[-122.42349549892374,37.78838792511318],[-122.42356139547452,37.78871330924479],[-122.42358061531115,37.78880821275313],[-122.42364473913113,37.78912484249646],[-122.42368249188192,37.78931126039462],[-122.42383416192918,37.790060160951704],[-122.42388084077112,37.79029064046521],[-122.42402509590573,37.79100290741578],[-122.42406285172447,37.79118932601078],[-122.42415046328229,37.791621905549114],[-122.42255018916384,37.791838944652085],[-122.42261457882113,37.79200480793538],[-122.42266734581047,37.79230200642954],[-122.42264008726711,37.7924097522728],[-122.42296615792135,37.79397818456747],[-122.42302900717621,37.794084460964314],[-122.42300082259517,37.794156454539184],[-122.42351402747045,37.79656831977666],[-122.42368952868571,37.79754308901653],[-122.42401595288082,37.79912343495616],[-122.4238841841337,37.79914911998514],[-122.42373244690108,37.79919959407719],[-122.42319300222992,37.79925608247215],[-122.42289540211826,37.79936823589277],[-122.42256497936697,37.79929268711001],[-122.42233439548043,37.79934418436546],[-122.42238917874336,37.79961535426815],[-122.42242687709754,37.79980178034176],[-122.4225293119731,37.8003088266801],[-122.42111867655447,37.800478943116744],[-122.42089077830799,37.80053929229234],[-122.41946186128894,37.80065004156944],[-122.41923198004363,37.80071709777279],[-122.41928718556404,37.80098342970304],[-122.41932601918793,37.801170769982654],[-122.41948049952326,37.801916011880465],[-122.41951387262478,37.80210297953886],[-122.418727444284,37.802201513421586],[-122.41871379550987,37.80267921868883],[-122.41818976306052,37.802727635643436],[-122.41784481424759,37.80277680958745],[-122.41772280475666,37.80232880390371],[-122.41739874224669,37.80237004060697],[-122.41741047608737,37.802831561661954],[-122.41687253865051,37.80294760768116],[-122.41689955587243,37.80320283072182],[-122.41690634088224,37.80339224445382],[-122.41664420465666,37.803425843086835],[-122.41640940131649,37.80345651683692],[-122.4165599755135,37.804198752186494],[-122.41659522850046,37.804385484461626],[-122.41663075036901,37.80456058221318],[-122.41678566708292,37.80482082178156],[-122.41659863481757,37.804884165168474],[-122.41528027564553,37.805011164490125],[-122.41504450658681,37.80503504065156],[-122.41510588543078,37.8053369690735],[-122.4151388378567,37.8055245095874],[-122.41529312548019,37.806264268779394],[-122.41533117732807,37.806450649459],[-122.41547917435483,37.80719641974431],[-122.4155183512251,37.80738335524475],[-122.41559333994252,37.807756258878875],[-122.41551011710926,37.807798276830496],[-122.41519622098512,37.80786298608761],[-122.41515700088308,37.8080901468729],[-122.4151340296257,37.80836473225937],[-122.4149853590541,37.80842675781546],[-122.41462393934488,37.80839685837135],[-122.41420243553607,37.808367933927414],[-122.41247289923962,37.80831253563791],[-122.4113730092849,37.80819922097747],[-122.41048839385675,37.808012086768485],[-122.40867948928052,37.80779931297723],[-122.40735970128888,37.80712888797302],[-122.40534894641014,37.80622163049143],[-122.40438334400847,37.80560128824037],[-122.40325029251377,37.804784274316894],[-122.40334689219061,37.80462640238127],[-122.40443951585496,37.804448568841096],[-122.40444359605036,37.80399626247445],[-122.40489188856077,37.80393979556822],[-122.40479334596739,37.80342875930598],[-122.40705242177904,37.803214116644774]],[[-122.41382572176867,37.79892326778911],[-122.41432475103926,37.79885529130683],[-122.4142329270122,37.798486632328284],[-122.41483466946589,37.798411542034316],[-122.41492621573082,37.798769318459506],[-122.41582798955378,37.798624030743824],[-122.41583119631899,37.79848245039283],[-122.41577828212351,37.79829279186271],[-122.41592647035617,37.798186960224974],[-122.41684335384154,37.79809585235878],[-122.41676094100593,37.79767046757647],[-122.41559628569628,37.797820352374856],[-122.41511556088714,37.79788118428973],[-122.41503527145984,37.79741214706797],[-122.41445340784662,37.797459698281266],[-122.41430364220057,37.79697222590253],[-122.41420075474004,37.796477022378966],[-122.41334857258809,37.79661503624348],[-122.41340704019079,37.79690841005755],[-122.41345843384084,37.79713448882533],[-122.41360973593068,37.797879952566156],[-122.41364723943168,37.7980647341751],[-122.41382572176867,37.79892326778911]],[[-122.40176026236068,37.796480259264975],[-122.40183084016283,37.796530183581744],[-122.40206753486093,37.796494942519125],[-122.40201636575837,37.796236528388306],[-122.40233142193989,37.796168600299325],[-122.40240958202729,37.796128060106184],[-122.402518938711,37.79614593498014],[-122.40250256734188,37.79627974769866],[-122.40253062753189,37.79640891428252],[-122.40279700930896,37.79637319366937],[-122.40276512644549,37.796094828525014],[-122.40317459302402,37.79604108641699],[-122.40291173965593,37.79478703460076],[-122.40211503949224,37.79487174135465],[-122.40220214956182,37.795373325257245],[-122.40198534952467,37.79541217324039],[-122.40171903432777,37.7953874936769],[-122.40103182401103,37.79548254031775],[-122.40030805913604,37.79559030861633],[-122.40033292252997,37.79583160258878],[-122.40046373196216,37.7963205900016],[-122.40092398637935,37.79629734977189],[-122.40169879619488,37.79620629937711],[-122.40176026236068,37.796480259264975]],[[-122.40997672402402,37.77962357332334],[-122.41089895587244,37.78037763716017],[-122.41161026418595,37.77978061073113],[-122.41068870668387,37.77905275689239],[-122.40997672402402,37.77962357332334]],[[-122.40628569764687,37.78252339831924],[-122.40691571410716,37.783046272380126],[-122.40764880856146,37.78245805158998],[-122.40696102863816,37.78192255064411],[-122.40628569764687,37.78252339831924]],[[-122.42346271184948,37.767083159076726],[-122.42345208258222,37.76743671504348],[-122.42387727736913,37.7674297759819],[-122.42386812860194,37.76707654275279],[-122.42346271184948,37.767083159076726]],[[-122.42355754187267,37.768071081891186],[-122.42355578414181,37.768385227821895],[-122.42395071043072,37.76835522374797],[-122.4239127083685,37.76803387351135],[-122.42355754187267,37.768071081891186]]]},"properties":{":id":"row-6p6t~icck-5ght",":version":"rv-yxs9-sv2s-pf38",":created_at":"2023-10-16T20:26:25.618Z",":updated_at":"2023-10-16T20:26:25.618Z","fid_1906_f":"0","fid_export":"-1","id":"0","id_1":"0","objectid":"1","shape_area":"110827955.33","shape_len":"74205.3698609","multigeom":false}}
] }
